[
    {
        "Altitude(m)": 706114.0198184536,
        "Argument of Periapsis(deg)": 0.0011390121186627068,
        "Eccentricity": 0.0,
        "Inclination(deg)": 45.0,
        "Latitude(deg)": 39.72092860650527,
        "Longitude(deg)": -150.77730316601534,
        "Mean Anomaly(deg)": 115.6988216647481,
        "RAAN(deg)": 184.9989248058542,
        "Satellite Name": "Constellation 1 821",
        "Satellite Number": 821,
        "Semi-Major Axis(m)": 7083131.272910544,
        "Time(s)": 19
    },
    {
        "Altitude(m)": 706108.8656886164,
        "Argument of Periapsis(deg)": 0.0011989601249081123,
        "Eccentricity": 0.0,
        "Inclination(deg)": 45.0,
        "Latitude(deg)": 39.69666135268038,
        "Longitude(deg)": -150.70918115929868,
        "Mean Anomaly(deg)": 115.759522804998,
        "RAAN(deg)": 184.9988682166886,
        "Satellite Name": "Constellation 1 821",
        "Satellite Number": 821,
        "Semi-Major Axis(m)": 7083131.272910544,
        "Time(s)": 20
    },
    {
        "Altitude(m)": 706103.7040825493,
        "Argument of Periapsis(deg)": 0.001258908131153518,
        "Eccentricity": 0.0,
        "Inclination(deg)": 45.0,
        "Latitude(deg)": 39.67234911283324,
        "Longitude(deg)": -150.64110973473643,
        "Mean Anomaly(deg)": 115.82022394524789,
        "RAAN(deg)": 184.99881162752303,
        "Satellite Name": "Constellation 1 821",
        "Satellite Number": 821,
        "Semi-Major Axis(m)": 7083131.272910544,
        "Time(s)": 21
    },
    {
        "Altitude(m)": 706098.5350316814,
        "Argument of Periapsis(deg)": 0.0013188561373989236,
        "Eccentricity": 0.0,
        "Inclination(deg)": 45.0,
        "Latitude(deg)": 39.64799195647249,
        "Longitude(deg)": -150.5730890746792,
        "Mean Anomaly(deg)": 115.88092508549776,
        "RAAN(deg)": 184.99875503835747,
        "Satellite Name": "Constellation 1 821",
        "Satellite Number": 821,
        "Semi-Major Axis(m)": 7083131.272910544,
        "Time(s)": 22
    },
    {
        "Altitude(m)": 706093.3585674831,
        "Argument of Periapsis(deg)": 0.0013788041436443293,
        "Eccentricity": 0.0,
        "Inclination(deg)": 45.0,
        "Latitude(deg)": 39.62358995310509,
        "Longitude(deg)": -150.5051188567513,
        "Mean Anomaly(deg)": 115.94162622574764,
        "RAAN(deg)": 184.9986984491919,
        "Satellite Name": "Constellation 1 821",
        "Satellite Number": 821,
        "Semi-Major Axis(m)": 7083131.272910544,
        "Time(s)": 23
    },
    {
        "Altitude(m)": 706088.1747214787,
        "Argument of Periapsis(deg)": 0.001438752149889735,
        "Eccentricity": 0.0,
        "Inclination(deg)": 45.0,
        "Latitude(deg)": 39.599143172237376,
        "Longitude(deg)": -150.43719926243327,
        "Mean Anomaly(deg)": 116.00232736599763,
        "RAAN(deg)": 184.99864186002634,
        "Satellite Name": "Constellation 1 821",
        "Satellite Number": 821,
        "Semi-Major Axis(m)": 7083131.272910544,
        "Time(s)": 24
    },
    {
        "Altitude(m)": 706082.9835252459,
        "Argument of Periapsis(deg)": 0.0014987001561351404,
        "Eccentricity": 0.0,
        "Inclination(deg)": 45.0,
        "Latitude(deg)": 39.57465168337361,
        "Longitude(deg)": -150.36933030467648,
        "Mean Anomaly(deg)": 116.06302850624746,
        "RAAN(deg)": 184.9985852708608,
        "Satellite Name": "Constellation 1 821",
        "Satellite Number": 821,
        "Semi-Major Axis(m)": 7083131.272910544,
        "Time(s)": 25
    },
    {
        "Altitude(m)": 706077.7850104143,
        "Argument of Periapsis(deg)": 0.001558648162380546,
        "Eccentricity": 0.0,
        "Inclination(deg)": 45.0,
        "Latitude(deg)": 39.55011555601526,
        "Longitude(deg)": -150.30151199600016,
        "Mean Anomaly(deg)": 116.12372964649738,
        "RAAN(deg)": 184.99852868169518,
        "Satellite Name": "Constellation 1 821",
        "Satellite Number": 821,
        "Semi-Major Axis(m)": 7083131.272910544,
        "Time(s)": 26
    },
    {
        "Altitude(m)": 706072.579208659,
        "Argument of Periapsis(deg)": 0.0016185961686259519,
        "Eccentricity": 0.0,
        "Inclination(deg)": 45.0,
        "Latitude(deg)": 39.52553485966076,
        "Longitude(deg)": -150.23374434849407,
        "Mean Anomaly(deg)": 116.18443078674727,
        "RAAN(deg)": 184.99847209252962,
        "Satellite Name": "Constellation 1 821",
        "Satellite Number": 821,
        "Semi-Major Axis(m)": 7083131.272910544,
        "Time(s)": 27
    },
    {
        "Altitude(m)": 706067.3661517203,
        "Argument of Periapsis(deg)": 0.0016785441748713573,
        "Eccentricity": 0.0,
        "Inclination(deg)": 45.0,
        "Latitude(deg)": 39.500909663804784,
        "Longitude(deg)": -150.16602737381888,
        "Mean Anomaly(deg)": 116.24513192699716,
        "RAAN(deg)": 184.99841550336404,
        "Satellite Name": "Constellation 1 821",
        "Satellite Number": 821,
        "Semi-Major Axis(m)": 7083131.272910544,
        "Time(s)": 28
    },
    {
        "Altitude(m)": 706062.1458713688,
        "Argument of Periapsis(deg)": 0.001738492181116763,
        "Eccentricity": 0.0,
        "Inclination(deg)": 45.0,
        "Latitude(deg)": 39.47624003793761,
        "Longitude(deg)": -150.0983610832081,
        "Mean Anomaly(deg)": 116.30583306724711,
        "RAAN(deg)": 184.9983589141985,
        "Satellite Name": "Constellation 1 821",
        "Satellite Number": 821,
        "Semi-Major Axis(m)": 7083131.272910544,
        "Time(s)": 29
    },
    {
        "Altitude(m)": 706056.9183994422,
        "Argument of Periapsis(deg)": 0.0017984401873621684,
        "Eccentricity": 0.0,
        "Inclination(deg)": 45.0,
        "Latitude(deg)": 39.45152605154499,
        "Longitude(deg)": -150.03074565556648,
        "Mean Anomaly(deg)": 116.36653420749694,
        "RAAN(deg)": 184.9983023250329,
        "Satellite Name": "Constellation 1 821",
        "Satellite Number": 821,
        "Semi-Major Axis(m)": 7083131.272910544,
        "Time(s)": 30
    },
    {
        "Altitude(m)": 706051.6837678223,
        "Argument of Periapsis(deg)": 0.0018583881936075745,
        "Eccentricity": 0.0,
        "Inclination(deg)": 45.0,
        "Latitude(deg)": 39.426767774106274,
        "Longitude(deg)": -149.96318076508317,
        "Mean Anomaly(deg)": 116.4272353477469,
        "RAAN(deg)": 184.99824573586736,
        "Satellite Name": "Constellation 1 821",
        "Satellite Number": 821,
        "Semi-Major Axis(m)": 7083131.272910544,
        "Time(s)": 31
    },
    {
        "Altitude(m)": 706046.44200844,
        "Argument of Periapsis(deg)": 0.0019183361998529795,
        "Eccentricity": 0.0,
        "Inclination(deg)": 45.0,
        "Latitude(deg)": 39.40196527509567,
        "Longitude(deg)": -149.89566658981528,
        "Mean Anomaly(deg)": 116.48793648799679,
        "RAAN(deg)": 184.9981891467018,
        "Satellite Name": "Constellation 1 821",
        "Satellite Number": 821,
        "Semi-Major Axis(m)": 7083131.272910544,
        "Time(s)": 32
    },
    {
        "Altitude(m)": 706041.1931532836,
        "Argument of Periapsis(deg)": 0.0019782842060983856,
        "Eccentricity": 0.0,
        "Inclination(deg)": 45.0,
        "Latitude(deg)": 39.37711862398038,
        "Longitude(deg)": -149.82820313930114,
        "Mean Anomaly(deg)": 116.54863762824668,
        "RAAN(deg)": 184.9981325575362,
        "Satellite Name": "Constellation 1 821",
        "Satellite Number": 821,
        "Semi-Major Axis(m)": 7083131.272910544,
        "Time(s)": 33
    },
    {
        "Altitude(m)": 706035.9372343828,
        "Argument of Periapsis(deg)": 0.0020382322123437906,
        "Eccentricity": 0.0,
        "Inclination(deg)": 45.0,
        "Latitude(deg)": 39.35222789022056,
        "Longitude(deg)": -149.7607904226589,
        "Mean Anomaly(deg)": 116.60933876849654,
        "RAAN(deg)": 184.99807596837064,
        "Satellite Name": "Constellation 1 821",
        "Satellite Number": 821,
        "Semi-Major Axis(m)": 7083131.272910544,
        "Time(s)": 34
    },
    {
        "Altitude(m)": 706030.6742838256,
        "Argument of Periapsis(deg)": 0.002098180218589197,
        "Eccentricity": 0.0,
        "Inclination(deg)": 45.0,
        "Latitude(deg)": 39.327293143268406,
        "Longitude(deg)": -149.6934284485878,
        "Mean Anomaly(deg)": 116.67003990874647,
        "RAAN(deg)": 184.99801937920506,
        "Satellite Name": "Constellation 1 821",
        "Satellite Number": 821,
        "Semi-Major Axis(m)": 7083131.272910544,
        "Time(s)": 35
    },
    {
        "Altitude(m)": 706025.4043337421,
        "Argument of Periapsis(deg)": 0.002158128224834602,
        "Eccentricity": 0.0,
        "Inclination(deg)": 45.0,
        "Latitude(deg)": 39.30231445256803,
        "Longitude(deg)": -149.6261172253697,
        "Mean Anomaly(deg)": 116.73074104899634,
        "RAAN(deg)": 184.9979627900395,
        "Satellite Name": "Constellation 1 821",
        "Satellite Number": 821,
        "Semi-Major Axis(m)": 7083131.272910544,
        "Time(s)": 36
    },
    {
        "Altitude(m)": 706020.1274163172,
        "Argument of Periapsis(deg)": 0.002218076231080008,
        "Eccentricity": 0.0,
        "Inclination(deg)": 45.0,
        "Latitude(deg)": 39.27729188755471,
        "Longitude(deg)": -149.55885692896717,
        "Mean Anomaly(deg)": 116.79144218924627,
        "RAAN(deg)": 184.9979062008739,
        "Satellite Name": "Constellation 1 821",
        "Satellite Number": 821,
        "Semi-Major Axis(m)": 7083131.272910544,
        "Time(s)": 37
    }
]